{"type": "FeatureCollection", "features": [ {"type": "Feature", "properties": {"norad_id": 60453, "name": "LEGION 4", "group": "resource", "lat": 7.665589188178647, "lon": -133.39353219530716, "alt_km": 521.8896017767347, "timestamp": "2025-12-10T09:57:44.362323+00:00", "meta": {"OBJECT_NAME": "LEGION 4", "OBJECT_ID": "2024-146B", "EPOCH": "2025-12-09T15:49:13.717056", "MEAN_MOTION": 15.15774012, "ECCENTRICITY": 0.0009746, "INCLINATION": 45.0385, "RA_OF_ASC_NODE": 58.3883, "ARG_OF_PERICENTER": 295.1374, "MEAN_ANOMALY": 64.8494, "EPHEMERIS_TYPE": 0, "CLASSIFICATION_TYPE": "U", "NORAD_CAT_ID": 60453, "ELEMENT_SET_NO": 999, "REV_AT_EPOCH": 7211, "BSTAR": 0.00042107, "MEAN_MOTION_DOT": 7.925e-05, "MEAN_MOTION_DDOT": 0}, "tle": {"line1": "1 60453U 24146B   25343.65918654  .00007925  00000+0  42107-3 0  9995", "line2": "2 60453  45.0385  58.3883 0009746 295.1374  64.8494 15.15774012 72116"}}, "geometry": {"type": "Point", "coordinates": [-133.39353219530716, 7.665589188178647]}}, {"type": "Feature", "properties": {"norad_id": 60989, "name": "SENTINEL-2C", "group": "resource", "lat": -79.39336607540041, "lon": 110.55194631073911, "alt_km": 797.1921149980026, "timestamp": "2025-12-10T09:57:44.362336+00:00", "meta": {"OBJECT_NAME": "SENTINEL-2C", "OBJECT_ID": "2024-157A", "EPOCH": "2025-12-10T03:38:23.778240", "MEAN_MOTION": 14.30815927, "ECCENTRICITY": 0.0001201, "INCLINATION": 98.5684, "RA_OF_ASC_NODE": 56.6715, "ARG_OF_PERICENTER": 98.0371, "MEAN_ANOMALY": 262.0948, "EPHEMERIS_TYPE": 0, "CLASSIFICATION_TYPE": "U", "NORAD_CAT_ID": 60989, "ELEMENT_SET_NO": 999, "REV_AT_EPOCH": 6595, "BSTAR": 0.00010601, "MEAN_MOTION_DOT": 2.34e-06, "MEAN_MOTION_DDOT": 0}, "tle": {"line1": "1 60989U 24157A   25344.15166410  .00000234  00000+0  10601-3 0  9992", "line2": "2 60989  98.5684  56.6715 0001201  98.0371 262.0948 14.30815927 65952"}}, "geometry": {"type": "Point", "coordinates": [110.55194631073911, -79.39336607540041]}}, {"type": "Feature", "properties": {"norad_id": 61735, "name": "IONOSFERA-M 1", "group": "resource", "lat": -68.589054871136, "lon": 11.178855644889833, "alt_km": 823.9709361762671, "timestamp": "2025-12-10T09:57:44.362347+00:00", "meta": {"OBJECT_NAME": "IONOSFERA-M 1", "OBJECT_ID": "2024-199A", "EPOCH": "2025-12-10T03:43:31.933344", "MEAN_MOTION": 14.22713167, "ECCENTRICITY": 0.0001081, "INCLINATION": 98.7412, "RA_OF_ASC_NODE": 214.0233, "ARG_OF_PERICENTER": 25.3742, "MEAN_ANOMALY": 334.7489, "EPHEMERIS_TYPE": 0, "CLASSIFICATION_TYPE": "U", "NORAD_CAT_ID": 61735, "ELEMENT_SET_NO": 999, "REV_AT_EPOCH": 10082, "BSTAR": 7.6651e-05, "MEAN_MOTION_DOT": 1.27e-06, "MEAN_MOTION_DDOT": 0}, "tle": {"line1": "1 61735U 24199A   25344.15523071  .00000127  00000+0  76651-4 0  9997", "line2": "2 61735  98.7412 214.0233 0001081  25.3742 334.7489 14.22713167100826"}}, "geometry": {"type": "Point", "coordinates": [11.178855644889833, -68.589054871136]}}, {"type": "Feature", "properties": {"norad_id": 61736, "name": "IONOSFERA-M 2", "group": "resource", "lat": 70.89541028061029, "lon": -172.1752049418256, "alt_km": 808.4336493704477, "timestamp": "2025-12-10T09:57:44.362358+00:00", "meta": {"OBJECT_NAME": "IONOSFERA-M 2", "OBJECT_ID": "2024-199B", "EPOCH": "2025-12-10T04:33:25.670016", "MEAN_MOTION": 14.22715345, "ECCENTRICITY": 0.0001585, "INCLINATION": 98.7403, "RA_OF_ASC_NODE": 213.9702, "ARG_OF_PERICENTER": 113.9493, "MEAN_ANOMALY": 246.1851, "EPHEMERIS_TYPE": 0, "CLASSIFICATION_TYPE": "U", "NORAD_CAT_ID": 61736, "ELEMENT_SET_NO": 999, "REV_AT_EPOCH": 10395, "BSTAR": 7.2722e-05, "MEAN_MOTION_DOT": 1.19e-06, "MEAN_MOTION_DDOT": 0}, "tle": {"line1": "1 61736U 24199B   25344.18988044  .00000119  00000+0  72722-4 0  9992", "line2": "2 61736  98.7403 213.9702 0001585 113.9493 246.1851 14.22715345103958"}}, "geometry": {"type": "Point", "coordinates": [-172.1752049418256, 70.89541028061029]}}, {"type": "Feature", "properties": {"norad_id": 63772, "name": "BIOMASS", "group": "resource", "lat": -69.27208147367993, "lon": -32.56222892013523, "alt_km": 677.0466347991469, "timestamp": "2025-12-10T09:57:44.362368+00:00", "meta": {"OBJECT_NAME": "BIOMASS", "OBJECT_ID": "2025-090A", "EPOCH": "2025-12-09T18:05:44.042208", "MEAN_MOTION": 14.67536805, "ECCENTRICITY": 0.0001201, "INCLINATION": 98.0703, "RA_OF_ASC_NODE": 168.8071, "ARG_OF_PERICENTER": 77.0089, "MEAN_ANOMALY": 283.1249, "EPHEMERIS_TYPE": 0, "CLASSIFICATION_TYPE": "U", "NORAD_CAT_ID": 63772, "ELEMENT_SET_NO": 999, "REV_AT_EPOCH": 3290, "BSTAR": 0.0004616, "MEAN_MOTION_DOT": 2.57e-05, "MEAN_MOTION_DDOT": 0}, "tle": {"line1": "1 63772U 25090A   25343.75398197  .00002570  00000+0  46160-3 0  9990", "line2": "2 63772  98.0703 168.8071 0001201  77.0089 283.1249 14.67536805 32908"}}, "geometry": {"type": "Point", "coordinates": [-32.56222892013523, -69.27208147367993]}}, {"type": "Feature", "properties": {"norad_id": 64694, "name": "GOSAT-GW (IBUKI GW)", "group": "resource", "lat": 77.04922904911847, "lon": 137.90941698489132, "alt_km": 660.6028607344424, "timestamp": "2025-12-10T09:57:44.362378+00:00", "meta": {"OBJECT_NAME": "GOSAT-GW (IBUKI GW)", "OBJECT_ID": "2025-141A", "EPOCH": "2025-12-08T18:14:08.043648", "MEAN_MOTION": 14.67565462, "ECCENTRICITY": 0.00014946, "INCLINATION": 98.0423, "RA_OF_ASC_NODE": 278.345, "ARG_OF_PERICENTER": 82.5316, "MEAN_ANOMALY": 277.6059, "EPHEMERIS_TYPE": 0, "CLASSIFICATION_TYPE": "U", "NORAD_CAT_ID": 64694, "ELEMENT_SET_NO": 999, "REV_AT_EPOCH": 2391, "BSTAR": 0.00038232231, "MEAN_MOTION_DOT": 2.122e-05, "MEAN_MOTION_DDOT": 0}, "tle": {"line1": "1 64694U 25141A   25342.75981532  .00002122  00000+0  38232-3 0  9995", "line2": "2 64694  98.0423 278.3450 0001494  82.5316 277.6059 14.67565462 23916"}}, "geometry": {"type": "Point", "coordinates": [137.90941698489132, 77.04922904911847]}}, {"type": "Feature", "properties": {"norad_id": 64876, "name": "IONOSFERA-M 3", "group": "resource", "lat": 51.15983093300631, "lon": 137.15139381400726, "alt_km": 815.0286988015923, "timestamp": "2025-12-10T09:57:44.362389+00:00", "meta": {"OBJECT_NAME": "IONOSFERA-M 3", "OBJECT_ID": "2025-155A", "EPOCH": "2025-12-09T21:32:12.901920", "MEAN_MOTION": 14.2144, "ECCENTRICITY": 0.0002293, "INCLINATION": 98.5778, "RA_OF_ASC_NODE": 305.844, "ARG_OF_PERICENTER": 64.4717, "MEAN_ANOMALY": 295.6698, "EPHEMERIS_TYPE": 0, "CLASSIFICATION_TYPE": "U", "NORAD_CAT_ID": 64876, "ELEMENT_SET_NO": 999, "REV_AT_EPOCH": 1951, "BSTAR": 9.6782e-05, "MEAN_MOTION_DOT": 1.69e-06, "MEAN_MOTION_DDOT": 0}, "tle": {"line1": "1 64876U 25155A   25343.89737155  .00000169  00000+0  96782-4 0  9992", "line2": "2 64876  98.5778 305.8440 0002293  64.4717 295.6698 14.21440000 19513"}}, "geometry": {"type": "Point", "coordinates": [137.15139381400726, 51.15983093300631]}}, {"type": "Feature", "properties": {"norad_id": 64877, "name": "IONOSFERA-M 4", "group": "resource", "lat": -50.7129714248661, "lon": -43.102078032510974, "alt_km": 827.8924849517916, "timestamp": "2025-12-10T09:57:44.362399+00:00", "meta": {"OBJECT_NAME": "IONOSFERA-M 4", "OBJECT_ID": "2025-155B", "EPOCH": "2025-12-09T20:41:21.012864", "MEAN_MOTION": 14.21441093, "ECCENTRICITY": 0.0001662, "INCLINATION": 98.5777, "RA_OF_ASC_NODE": 305.7292, "ARG_OF_PERICENTER": 66.2764, "MEAN_ANOMALY": 293.8588, "EPHEMERIS_TYPE": 0, "CLASSIFICATION_TYPE": "U", "NORAD_CAT_ID": 64877, "ELEMENT_SET_NO": 999, "REV_AT_EPOCH": 1950, "BSTAR": 0.00010415, "MEAN_MOTION_DOT": 1.85e-06, "MEAN_MOTION_DDOT": 0}, "tle": {"line1": "1 64877U 25155B   25343.86204876  .00000185  00000+0  10415-3 0  9995", "line2": "2 64877  98.5777 305.7292 0001662  66.2764 293.8588 14.21441093 19508"}}, "geometry": {"type": "Point", "coordinates": [-43.102078032510974, -50.7129714248661]}}, {"type": "Feature", "properties": {"norad_id": 64899, "name": "MICROCARB", "group": "resource", "lat": 39.54475317001447, "lon": 53.12744039687836, "alt_km": 655.8793341625924, "timestamp": "2025-12-10T09:57:44.362411+00:00", "meta": {"OBJECT_NAME": "MICROCARB", "OBJECT_ID": "2025-156A", "EPOCH": "2025-12-09T10:56:29.938848", "MEAN_MOTION": 14.72049485, "ECCENTRICITY": 0.00169337, "INCLINATION": 98.0028, "RA_OF_ASC_NODE": 58.854, "ARG_OF_PERICENTER": 154.8146, "MEAN_ANOMALY": 205.389, "EPHEMERIS_TYPE": 0, "CLASSIFICATION_TYPE": "U", "NORAD_CAT_ID": 64899, "ELEMENT_SET_NO": 999, "REV_AT_EPOCH": 2005, "BSTAR": 0.00022635085, "MEAN_MOTION_DOT": 1.375e-05, "MEAN_MOTION_DDOT": 0}, "tle": {"line1": "1 64899U 25156A   25343.45590207  .00001375  00000+0  22635-3 0  9990", "line2": "2 64899  98.0028  58.8540 0016933 154.8146 205.3890 14.72049485 20054"}}, "geometry": {"type": "Point", "coordinates": [53.12744039687836, 39.54475317001447]}}, {"type": "Feature", "properties": {"norad_id": 64900, "name": "CO3D 3", "group": "resource", "lat": 39.04950099022066, "lon": 54.734567481733585, "alt_km": 501.8691600779084, "timestamp": "2025-12-10T09:57:44.362421+00:00", "meta": {"OBJECT_NAME": "CO3D 3", "OBJECT_ID": "2025-156B", "EPOCH": "2025-12-09T19:34:17.738112", "MEAN_MOTION": 15.2018766, "ECCENTRICITY": 0.0001293, "INCLINATION": 97.4343, "RA_OF_ASC_NODE": 60.2241, "ARG_OF_PERICENTER": 99.1307, "MEAN_ANOMALY": 261.0074, "EPHEMERIS_TYPE": 0, "CLASSIFICATION_TYPE": "U", "NORAD_CAT_ID": 64900, "ELEMENT_SET_NO": 999, "REV_AT_EPOCH": 2076, "BSTAR": 0.0004532, "MEAN_MOTION_DOT": 9.752e-05, "MEAN_MOTION_DDOT": 0}, "tle": {"line1": "1 64900U 25156B   25343.81548308  .00009752  00000+0  45320-3 0  9991", "line2": "2 64900  97.4343  60.2241 0001293  99.1307 261.0074 15.20187660 20761"}}, "geometry": {"type": "Point", "coordinates": [54.734567481733585, 39.04950099022066]}}]}